[{"OBJECT_NAME":"STARLINK-34719","OBJECT_ID":"2025-158M","EPOCH":"2026-03-09T12:42:55.980576","MEAN_MOTION":15.05651936,"ECCENTRICITY":0.00025731,"INCLINATION":97.6018,"RA_OF_ASC_NODE":293.9582,"ARG_OF_PERICENTER":93.7778,"MEAN_ANOMALY":266.3743,"EPHEMERIS_TYPE":0,"CLASSIFICATION_TYPE":"U","NORAD_CAT_ID":64943,"ELEMENT_SET_NO":999,"REV_AT_EPOCH":3533,"BSTAR":0.00016005727,"MEAN_MOTION_DOT":2.25e-5,"MEAN_MOTION_DDOT":0},{"OBJECT_NAME":"CZ-2C DEB","OBJECT_ID":"2009-061C","EPOCH":"2026-03-09T15:20:14.637120","MEAN_MOTION":14.99171478,"ECCENTRICITY":0.0032615,"INCLINATION":97.8461,"RA_OF_ASC_NODE":101.0533,"ARG_OF_PERICENTER":313.5449,"MEAN_ANOMALY":164.4427,"EPHEMERIS_TYPE":0,"CLASSIFICATION_TYPE":"U","NORAD_CAT_ID":36090,"ELEMENT_SET_NO":999,"REV_AT_EPOCH":86976,"BSTAR":0.0014405,"MEAN_MOTION_DOT":0.00017697,"MEAN_MOTION_DDOT":0}]
